{
  "type": "FeatureCollection",
  "features": [
    {
      "type": "Feature",
      "properties": {
        "norad_id": 48859,
        "name": "GPS BIII-5  (PRN 11)",
        "group": "gps-ops",
        "lat": -14.608340611660704,
        "lon": 170.30651997936934,
        "alt_km": 20131.96568237573,
        "timestamp": "2025-12-14T07:33:19.736180+00:00",
        "meta_object_name": "GPS BIII-5  (PRN 11)",
        "meta_object_id": "2021-054A",
        "meta_epoch": "2025-12-08T04:14:32.423424",
        "meta_mean_motion": 2.00553627,
        "meta_eccentricity": 0.0024678,
        "meta_inclination": 55.2581,
        "meta_ra_of_asc_node": 340.1367,
        "meta_arg_of_pericenter": 233.3994,
        "meta_mean_anomaly": 212.8593,
        "meta_ephemeris_type": 0,
        "meta_classification_type": "U",
        "meta_norad_cat_id": 48859,
        "meta_element_set_no": 999,
        "meta_rev_at_epoch": 3292,
        "meta_bstar": 0,
        "meta_mean_motion_dot": -8.6e-07,
        "meta_mean_motion_ddot": 0,
        "tle_line1": "1 48859U 21054A   25342.17676416 -.00000086  00000+0  00000+0 0  9993",
        "tle_line2": "2 48859  55.2581 340.1367 0024678 233.3994 212.8593  2.00553627 32922"
      },
      "geometry": {
        "type": "Point",
        "coordinates": [
          170.30651997936934,
          -14.608340611660704
        ]
      }
    },
    {
      "type": "Feature",
      "properties": {
        "norad_id": 55268,
        "name": "GPS BIII-6  (PRN 28)",
        "group": "gps-ops",
        "lat": -45.48477315603243,
        "lon": 21.01682436861334,
        "alt_km": 20192.586072080616,
        "timestamp": "2025-12-14T07:33:19.736192+00:00",
        "meta_object_name": "GPS BIII-6  (PRN 28)",
        "meta_object_id": "2023-009A",
        "meta_epoch": "2025-12-13T12:37:03.021024",
        "meta_mean_motion": 2.00555696,
        "meta_eccentricity": 0.00037118,
        "meta_inclination": 55.1051,
        "meta_ra_of_asc_node": 155.8142,
        "meta_arg_of_pericenter": 357.4368,
        "meta_mean_anomaly": 33.2544,
        "meta_ephemeris_type": 0,
        "meta_classification_type": "U",
        "meta_norad_cat_id": 55268,
        "meta_element_set_no": 999,
        "meta_rev_at_epoch": 2152,
        "meta_bstar": 0,
        "meta_mean_motion_dot": 1e-06,
        "meta_mean_motion_ddot": 0,
        "tle_line1": "1 55268U 23009A   25347.52572941  .00000100  00000+0  00000+0 0  9995",
        "tle_line2": "2 55268  55.1051 155.8142 0003711 357.4368  33.2544  2.00555696 21528"
      },
      "geometry": {
        "type": "Point",
        "coordinates": [
          21.01682436861334,
          -45.48477315603243
        ]
      }
    },
    {
      "type": "Feature",
      "properties": {
        "norad_id": 62339,
        "name": "GPS BIII-7  (PRN 01)",
        "group": "gps-ops",
        "lat": -33.31697540528677,
        "lon": -45.832870242193934,
        "alt_km": 20156.918189354063,
        "timestamp": "2025-12-14T07:33:19.736204+00:00",
        "meta_object_name": "GPS BIII-7  (PRN 01)",
        "meta_object_id": "2024-242A",
        "meta_epoch": "2025-12-13T08:55:39.244800",
        "meta_mean_motion": 2.00567973,
        "meta_eccentricity": 0.00122972,
        "meta_inclination": 54.9234,
        "meta_ra_of_asc_node": 341.714,
        "meta_arg_of_pericenter": 344.9239,
        "meta_mean_anomaly": 12.1981,
        "meta_ephemeris_type": 0,
        "meta_classification_type": "U",
        "meta_norad_cat_id": 62339,
        "meta_element_set_no": 999,
        "meta_rev_at_epoch": 752,
        "meta_bstar": 0,
        "meta_mean_motion_dot": -9.1e-07,
        "meta_mean_motion_ddot": 0,
        "tle_line1": "1 62339U 24242A   25347.37198200 -.00000091  00000+0  00000+0 0  9997",
        "tle_line2": "2 62339  54.9234 341.7140 0012297 344.9239  12.1981  2.00567973  7522"
      },
      "geometry": {
        "type": "Point",
        "coordinates": [
          -45.832870242193934,
          -33.31697540528677
        ]
      }
    },
    {
      "type": "Feature",
      "properties": {
        "norad_id": 64202,
        "name": "GPS BIII-8  (PRN 21)",
        "group": "gps-ops",
        "lat": 26.292547681354364,
        "lon": -161.55825252345278,
        "alt_km": 20193.50252605902,
        "timestamp": "2025-12-14T07:33:19.736216+00:00",
        "meta_object_name": "GPS BIII-8  (PRN 21)",
        "meta_object_id": "2025-116A",
        "meta_epoch": "2025-12-13T02:48:10.465056",
        "meta_mean_motion": 2.00558313,
        "meta_eccentricity": 0.00055988,
        "meta_inclination": 55.106,
        "meta_ra_of_asc_node": 38.6253,
        "meta_arg_of_pericenter": 307.9903,
        "meta_mean_anomaly": 54.3389,
        "meta_ephemeris_type": 0,
        "meta_classification_type": "U",
        "meta_norad_cat_id": 64202,
        "meta_element_set_no": 999,
        "meta_rev_at_epoch": 414,
        "meta_bstar": 0,
        "meta_mean_motion_dot": -9.8e-07,
        "meta_mean_motion_ddot": 0,
        "tle_line1": "1 64202U 25116A   25347.11678779 -.00000098  00000+0  00000+0 0  9992",
        "tle_line2": "2 64202  55.1060  38.6253 0005598 307.9903  54.3389  2.00558313  4146"
      },
      "geometry": {
        "type": "Point",
        "coordinates": [
          -161.55825252345278,
          26.292547681354364
        ]
      }
    }
  ]
}